STARLINK-2288_new
1 18034C 21024BK  21326.19238704  .00003208  00000-0  21490-3 0  3262
2 18034  53.0537 172.8825 0002141  76.5985 237.0916 15.06402289    11
STARLINK-2288_old
1 28034C 21024BK  21325.11285382  .00007506  00000-0  50286-3 0  3256
2 28034  53.0536 177.7288 0002122  74.7872 141.3141 15.06392048    19
